start=new Date('2021-10-24T00:00:00.000Z').valueOf();
sats=[{"PERIOD":"95.593","SEMIMAJOR_AXIS":"6925.370","RCS_SIZE":"LARGE","ECCENTRICITY":"0.00012110","TLE_LINE1":"1 45212U 20012AL  21296.67704253  .00001479  00000-0  11821-3 0  9990","RA_OF_ASC_NODE":"0.3871","REV_AT_EPOCH":"9421","MEAN_ELEMENT_THEORY":"SGP4","PERIAPSIS":"546.396","LAUNCH_DATE":"2020-02-17","TLE_LINE2":"2 45212  53.0546   0.3871 0001211  84.8637 275.2490 15.06393015 94217","EPOCH":"2021-10-23T16:14:56.474592","MEAN_MOTION_DOT":"0.00001479","OBJECT_TYPE":"PAYLOAD","SITE":"AFETR","ARG_OF_PERICENTER":"84.8637","OBJECT_NAME":"STARLINK-1231","APOAPSIS":"548.074","FILE":"3181152","ELEMENT_SET_NO":"999","TIME_SYSTEM":"UTC","DECAY_DATE":null,"OBJECT_ID":"2020-012AL","MEAN_MOTION":"15.06393015","MEAN_MOTION_DDOT":"0.0000000000000","COUNTRY_CODE":"US","MEAN_ANOMALY":"275.2490","NORAD_CAT_ID":"45212","REF_FRAME":"TEME","GP_ID":"188022792","BSTAR":"0.00011821000000","EPHEMERIS_TYPE":"0","INCLINATION":"53.0546","CLASSIFICATION_TYPE":"U","CENTER_NAME":"EARTH"},{"TIME_SYSTEM":"UTC","MEAN_MOTION":"15.07218870","MEAN_MOTION_DDOT":"0.0000000000000","DECAY_DATE":null,"OBJECT_ID":"2020-012AM","ARG_OF_PERICENTER":"78.6124","SITE":"AFETR","OBJECT_NAME":"STARLINK-1232","FILE":"3181152","APOAPSIS":"545.559","ELEMENT_SET_NO":"999","EPHEMERIS_TYPE":"0","CENTER_NAME":"EARTH","INCLINATION":"53.0569","CLASSIFICATION_TYPE":"U","NORAD_CAT_ID":"45213","MEAN_ANOMALY":"281.5004","COUNTRY_CODE":"US","BSTAR":"0.00014061000000","REF_FRAME":"TEME","GP_ID":"188023542","TLE_LINE1":"1 45213U 20012AM  21296.61796436  .00001858  00000-0  14061-3 0  9999","RCS_SIZE":"LARGE","SEMIMAJOR_AXIS":"6922.840","ECCENTRICITY":"0.00012340","RA_OF_ASC_NODE":"0.6929","PERIOD":"95.540","EPOCH":"2021-10-23T14:49:52.120704","TLE_LINE2":"2 45213  53.0569   0.6929 0001234  78.6124 281.5004 15.07218870 94258","MEAN_MOTION_DOT":"0.00001858","OBJECT_TYPE":"PAYLOAD","PERIAPSIS":"543.851","MEAN_ELEMENT_THEORY":"SGP4","LAUNCH_DATE":"2020-02-17","REV_AT_EPOCH":"9425"},{"PERIOD":"95.592","TLE_LINE1":"1 45214U 20012AN  21296.65122393  .00001762  00000-0  13714-3 0  9997","RCS_SIZE":"LARGE","ECCENTRICITY":"0.00009260","SEMIMAJOR_AXIS":"6925.343","RA_OF_ASC_NODE":"0.4918","MEAN_ELEMENT_THEORY":"SGP4","PERIAPSIS":"546.567","LAUNCH_DATE":"2020-02-17","REV_AT_EPOCH":"9425","EPOCH":"2021-10-23T15:37:45.747552","TLE_LINE2":"2 45214  53.0547   0.4918 0000926 101.2817 258.8276 15.06401850 94259","MEAN_MOTION_DOT":"0.00001762","OBJECT_TYPE":"PAYLOAD","ARG_OF_PERICENTER":"101.2817","SITE":"AFETR","OBJECT_NAME":"STARLINK-1233","APOAPSIS":"547.849","FILE":"3181152","ELEMENT_SET_NO":"999","TIME_SYSTEM":"UTC","MEAN_MOTION":"15.06401850","MEAN_MOTION_DDOT":"0.0000000000000","DECAY_DATE":null,"OBJECT_ID":"2020-012AN","NORAD_CAT_ID":"45214","MEAN_ANOMALY":"258.8276","COUNTRY_CODE":"US","BSTAR":"0.00013714000000","GP_ID":"188022290","REF_FRAME":"TEME","EPHEMERIS_TYPE":"0","CENTER_NAME":"EARTH","INCLINATION":"53.0547","CLASSIFICATION_TYPE":"U"},{"REV_AT_EPOCH":"9417","MEAN_ELEMENT_THEORY":"SGP4","PERIAPSIS":"546.329","LAUNCH_DATE":"2020-02-17","MEAN_MOTION_DOT":"-0.00000470","OBJECT_TYPE":"PAYLOAD","TLE_LINE2":"2 45215  53.0561   1.1017 0001312  79.3144 280.7993 15.06392228 94171","EPOCH":"2021-10-23T12:21:22.254624","PERIOD":"95.593","RA_OF_ASC_NODE":"1.1017","SEMIMAJOR_AXIS":"6925.372","RCS_SIZE":"LARGE","ECCENTRICITY":"0.00013120","TLE_LINE1":"1 45215U 20012AP  21296.51484091 -.00000470  00000-0 -12696-4 0  9995","REF_FRAME":"TEME","GP_ID":"188022540","BSTAR":"-0.00001269600000","COUNTRY_CODE":"US","MEAN_ANOMALY":"280.7993","NORAD_CAT_ID":"45215","INCLINATION":"53.0561","CLASSIFICATION_TYPE":"U","CENTER_NAME":"EARTH","EPHEMERIS_TYPE":"0","OBJECT_NAME":"STARLINK-1245","APOAPSIS":"548.146","FILE":"3181152","ELEMENT_SET_NO":"999","ARG_OF_PERICENTER":"79.3144","SITE":"AFETR","DECAY_DATE":null,"OBJECT_ID":"2020-012AP","MEAN_MOTION":"15.06392228","MEAN_MOTION_DDOT":"0.0000000000000","TIME_SYSTEM":"UTC"},{"TIME_SYSTEM":"UTC","DECAY_DATE":null,"OBJECT_ID":"2020-012AQ","MEAN_MOTION":"15.71490521","MEAN_MOTION_DDOT":"0.0000000000000","ARG_OF_PERICENTER":"25.7312","SITE":"AFETR","OBJECT_NAME":"STARLINK-1254","FILE":"3181152","APOAPSIS":"356.659","ELEMENT_SET_NO":"999","EPHEMERIS_TYPE":"0","INCLINATION":"53.0564","CLASSIFICATION_TYPE":"U","CENTER_NAME":"EARTH","COUNTRY_CODE":"US","MEAN_ANOMALY":"334.3854","NORAD_CAT_ID":"45216","REF_FRAME":"TEME","GP_ID":"188023292","BSTAR":"0.00014780000000","RCS_SIZE":"LARGE","SEMIMAJOR_AXIS":"6732.773","ECCENTRICITY":"0.00030010","TLE_LINE1":"1 45216U 20012AQ  21296.56762519  .00018732  00000-0  14780-3 0  9998","RA_OF_ASC_NODE":"341.9793","PERIOD":"91.633","TLE_LINE2":"2 45216  53.0564 341.9793 0003001  25.7312 334.3854 15.71490521 94359","EPOCH":"2021-10-23T13:37:22.816416","MEAN_MOTION_DOT":"0.00018732","OBJECT_TYPE":"PAYLOAD","REV_AT_EPOCH":"9435","MEAN_ELEMENT_THEORY":"SGP4","PERIAPSIS":"352.618","LAUNCH_DATE":"2020-02-17"},{"RA_OF_ASC_NODE":"0.3290","TLE_LINE1":"1 45217U 20012AR  21296.68810828  .00002428  00000-0  18187-3 0  9999","RCS_SIZE":"LARGE","SEMIMAJOR_AXIS":"6925.379","ECCENTRICITY":"0.00011130","PERIOD":"95.593","MEAN_MOTION_DOT":"0.00002428","OBJECT_TYPE":"PAYLOAD","EPOCH":"2021-10-23T16:30:52.555392","TLE_LINE2":"2 45217  53.0561   0.3290 0001113 100.4630 259.6484 15.06390113 94263","PERIAPSIS":"546.473","MEAN_ELEMENT_THEORY":"SGP4","LAUNCH_DATE":"2020-02-17","REV_AT_EPOCH":"9426","MEAN_MOTION":"15.06390113","MEAN_MOTION_DDOT":"0.0000000000000","DECAY_DATE":null,"OBJECT_ID":"2020-012AR","TIME_SYSTEM":"UTC","OBJECT_NAME":"STARLINK-1271","APOAPSIS":"548.015","FILE":"3181152","ELEMENT_SET_NO":"999","SITE":"AFETR","ARG_OF_PERICENTER":"100.4630","CENTER_NAME":"EARTH","INCLINATION":"53.0561","CLASSIFICATION_TYPE":"U","EPHEMERIS_TYPE":"0","BSTAR":"0.00018187000000","REF_FRAME":"TEME","GP_ID":"188023043","MEAN_ANOMALY":"259.6484","NORAD_CAT_ID":"45217","COUNTRY_CODE":"US"},{"OBJECT_NAME":"STARLINK-1187","FILE":"3181152","ELEMENT_SET_NO":"999","APOAPSIS":"547.923","SITE":"AFETR","ARG_OF_PERICENTER":"92.0673","MEAN_MOTION":"15.06402139","MEAN_MOTION_DDOT":"0.0000000000000","DECAY_DATE":null,"OBJECT_ID":"2020-012AT","TIME_SYSTEM":"UTC","BSTAR":"0.00011186000000","REF_FRAME":"TEME","GP_ID":"188021791","MEAN_ANOMALY":"268.0435","NORAD_CAT_ID":"45219","COUNTRY_CODE":"US","CENTER_NAME":"EARTH","INCLINATION":"53.0555","CLASSIFICATION_TYPE":"U","EPHEMERIS_TYPE":"0","PERIOD":"95.592","RA_OF_ASC_NODE":"340.6344","TLE_LINE1":"1 45219U 20012AT  21296.61988790  .00001385  00000-0  11186-3 0  9991","RCS_SIZE":"LARGE","ECCENTRICITY":"0.00010340","SEMIMAJOR_AXIS":"6925.342","MEAN_ELEMENT_THEORY":"SGP4","PERIAPSIS":"546.491","LAUNCH_DATE":"2020-02-17","REV_AT_EPOCH":"9454","MEAN_MOTION_DOT":"0.00001385","OBJECT_TYPE":"PAYLOAD","EPOCH":"2021-10-23T14:52:38.314560","TLE_LINE2":"2 45219  53.0555 340.6344 0001034  92.0673 268.0435 15.06402139 94546"},{"MEAN_MOTION":"15.71461078","MEAN_MOTION_DDOT":"0.0000000000000","DECAY_DATE":null,"OBJECT_ID":"2020-012AU","TIME_SYSTEM":"UTC","OBJECT_NAME":"STARLINK-1188","ELEMENT_SET_NO":"999","FILE":"3181152","APOAPSIS":"356.800","ARG_OF_PERICENTER":"23.1081","SITE":"AFETR","CENTER_NAME":"EARTH","INCLINATION":"53.0529","CLASSIFICATION_TYPE":"U","EPHEMERIS_TYPE":"0","BSTAR":"0.00003224400000","GP_ID":"188022041","REF_FRAME":"TEME","NORAD_CAT_ID":"45220","MEAN_ANOMALY":"337.0074","COUNTRY_CODE":"US","RA_OF_ASC_NODE":"315.2770","TLE_LINE1":"1 45220U 20012AU  21296.56658452  .00003599  00000-0  32244-4 0  9994","ECCENTRICITY":"0.00030860","RCS_SIZE":"LARGE","SEMIMAJOR_AXIS":"6732.857","PERIOD":"91.634","MEAN_MOTION_DOT":"0.00003599","OBJECT_TYPE":"PAYLOAD","EPOCH":"2021-10-23T13:35:52.902528","TLE_LINE2":"2 45220  53.0529 315.2770 0003086  23.1081 337.0074 15.71461078 94777","MEAN_ELEMENT_THEORY":"SGP4","PERIAPSIS":"352.645","LAUNCH_DATE":"2020-02-17","REV_AT_EPOCH":"9477"},{"OBJECT_TYPE":"PAYLOAD","MEAN_MOTION_DOT":"-0.00000316","EPOCH":"2021-10-23T14:57:57.643776","TLE_LINE2":"2 45221  53.0560 340.6200 0001198  97.3045 262.8080 15.06388924 94530","LAUNCH_DATE":"2020-02-17","PERIAPSIS":"546.418","MEAN_ELEMENT_THEORY":"SGP4","REV_AT_EPOCH":"9453","RA_OF_ASC_NODE":"340.6200","TLE_LINE1":"1 45221U 20012AV  21296.62358384 -.00000316  00000-0 -23010-5 0  9991","RCS_SIZE":"LARGE","ECCENTRICITY":"0.00011980","SEMIMAJOR_AXIS":"6925.383","PERIOD":"95.593","CENTER_NAME":"EARTH","CLASSIFICATION_TYPE":"U","INCLINATION":"53.0560","EPHEMERIS_TYPE":"0","BSTAR":"-0.00000230100000","REF_FRAME":"TEME","GP_ID":"188022793","NORAD_CAT_ID":"45221","MEAN_ANOMALY":"262.8080","COUNTRY_CODE":"US","MEAN_MOTION_DDOT":"0.0000000000000","MEAN_MOTION":"15.06388924","OBJECT_ID":"2020-012AV","DECAY_DATE":null,"TIME_SYSTEM":"UTC","ELEMENT_SET_NO":"999","FILE":"3181152","APOAPSIS":"548.077","OBJECT_NAME":"STARLINK-1189","ARG_OF_PERICENTER":"97.3045","SITE":"AFETR"},{"PERIOD":"95.592","RA_OF_ASC_NODE":"341.1879","TLE_LINE1":"1 45222U 20012AW  21296.49825708  .00001290  00000-0  10545-3 0  9993","SEMIMAJOR_AXIS":"6925.354","RCS_SIZE":"LARGE","ECCENTRICITY":"0.00009780","MEAN_ELEMENT_THEORY":"SGP4","PERIAPSIS":"546.542","LAUNCH_DATE":"2020-02-17","REV_AT_EPOCH":"9451","MEAN_MOTION_DOT":"0.00001290","OBJECT_TYPE":"PAYLOAD","EPOCH":"2021-10-23T11:57:29.411712","TLE_LINE2":"2 45222  53.0563 341.1879 0000978  89.8985 270.2116 15.06398188 94510","OBJECT_NAME":"STARLINK-1191","ELEMENT_SET_NO":"999","FILE":"3181152","APOAPSIS":"547.896","SITE":"AFETR","ARG_OF_PERICENTER":"89.8985","MEAN_MOTION":"15.06398188","MEAN_MOTION_DDOT":"0.0000000000000","DECAY_DATE":null,"OBJECT_ID":"2020-012AW","TIME_SYSTEM":"UTC","BSTAR":"0.00010545000000","REF_FRAME":"TEME","GP_ID":"188023543","NORAD_CAT_ID":"45222","MEAN_ANOMALY":"270.2116","COUNTRY_CODE":"US","CENTER_NAME":"EARTH","INCLINATION":"53.0563","CLASSIFICATION_TYPE":"U","EPHEMERIS_TYPE":"0"}];
